{"type": "FeatureCollection", "features": [ {"type": "Feature", "properties": {"norad_id": 66819, "name": "STARLINK-35989", "group": "last-30-days", "lat": 9.037931700062678, "lon": -174.16131153572783, "alt_km": 413.89591951565126, "timestamp": "2025-12-25T09:48:51.005658+00:00", "meta": {"OBJECT_NAME": "STARLINK-35989", "OBJECT_ID": "2025-278AE", "EPOCH": "2025-12-25T04:00:01.998720", "MEAN_MOTION": 15.50602669, "ECCENTRICITY": 0.0001645, "INCLINATION": 43.0003, "RA_OF_ASC_NODE": 177.4277, "ARG_OF_PERICENTER": 266.4579, "MEAN_ANOMALY": 193.1333, "EPHEMERIS_TYPE": 0, "CLASSIFICATION_TYPE": "U", "NORAD_CAT_ID": 66819, "ELEMENT_SET_NO": 999, "REV_AT_EPOCH": 495, "BSTAR": -0.0013322, "MEAN_MOTION_DOT": -0.00077792, "MEAN_MOTION_DDOT": 0}, "tle": {"line1": "1 66819U 25278AE  25359.16668980 -.00077792  00000+0 -13322-2 0  9998", "line2": "2 66819  43.0003 177.4277 0001645 266.4579 193.1333 15.50602669  4953"}}, "geometry": {"type": "Point", "coordinates": [-174.16131153572783, 9.037931700062678]}}, {"type": "Feature", "properties": {"norad_id": 66820, "name": "KOMPSAT-7", "group": "last-30-days", "lat": -27.475602980409594, "lon": -50.93779371813704, "alt_km": 573.5286251138514, "timestamp": "2025-12-25T09:48:51.005668+00:00", "meta": {"OBJECT_NAME": "KOMPSAT-7", "OBJECT_ID": "2025-279A", "EPOCH": "2025-12-24T22:44:08.567232", "MEAN_MOTION": 15.00672035, "ECCENTRICITY": 0.00112396, "INCLINATION": 97.6459, "RA_OF_ASC_NODE": 304.6024, "ARG_OF_PERICENTER": 222.2186, "MEAN_ANOMALY": 137.8173, "EPHEMERIS_TYPE": 0, "CLASSIFICATION_TYPE": "U", "NORAD_CAT_ID": 66820, "ELEMENT_SET_NO": 999, "REV_AT_EPOCH": 348, "BSTAR": 0.00024503699, "MEAN_MOTION_DOT": 3.045e-05, "MEAN_MOTION_DDOT": 0}, "tle": {"line1": "1 66820U 25279A   25358.94732138  .00003045  00000+0  24504-3 0  9996", "line2": "2 66820  97.6459 304.6024 0011239 222.2186 137.8173 15.00672035  3486"}}, "geometry": {"type": "Point", "coordinates": [-50.93779371813704, -27.475602980409594]}}, {"type": "Feature", "properties": {"norad_id": 66821, "name": "STARLINK-35966", "group": "last-30-days", "lat": -50.80329816203347, "lon": 10.242394297377173, "alt_km": 413.9498467269523, "timestamp": "2025-12-25T09:48:51.005678+00:00", "meta": {"OBJECT_NAME": "STARLINK-35966", "OBJECT_ID": "2025-280A", "EPOCH": "2025-12-25T01:04:16.795776", "MEAN_MOTION": 15.52523438, "ECCENTRICITY": 0.0003119, "INCLINATION": 70.0008, "RA_OF_ASC_NODE": 164.7124, "ARG_OF_PERICENTER": 275.1712, "MEAN_ANOMALY": 84.9119, "EPHEMERIS_TYPE": 0, "CLASSIFICATION_TYPE": "U", "NORAD_CAT_ID": 66821, "ELEMENT_SET_NO": 999, "REV_AT_EPOCH": 484, "BSTAR": 0.00075664, "MEAN_MOTION_DOT": 0.00046662, "MEAN_MOTION_DDOT": 0}, "tle": {"line1": "1 66821U 25280A   25359.04463884  .00046662  00000+0  75664-3 0  9995", "line2": "2 66821  70.0008 164.7124 0003119 275.1712  84.9119 15.52523438  4840"}}, "geometry": {"type": "Point", "coordinates": [10.242394297377173, -50.80329816203347]}}, {"type": "Feature", "properties": {"norad_id": 66822, "name": "STARLINK-35958", "group": "last-30-days", "lat": -52.61007635901378, "lon": 12.174290509751494, "alt_km": 413.0972646936707, "timestamp": "2025-12-25T09:48:51.005690+00:00", "meta": {"OBJECT_NAME": "STARLINK-35958", "OBJECT_ID": "2025-280B", "EPOCH": "2025-12-25T01:03:46.001088", "MEAN_MOTION": 15.52647761, "ECCENTRICITY": 0.0003793, "INCLINATION": 70.0004, "RA_OF_ASC_NODE": 164.712, "ARG_OF_PERICENTER": 275.5917, "MEAN_ANOMALY": 84.4837, "EPHEMERIS_TYPE": 0, "CLASSIFICATION_TYPE": "U", "NORAD_CAT_ID": 66822, "ELEMENT_SET_NO": 999, "REV_AT_EPOCH": 484, "BSTAR": 0.0017213, "MEAN_MOTION_DOT": 0.00107675, "MEAN_MOTION_DDOT": 0}, "tle": {"line1": "1 66822U 25280B   25359.04428242  .00107675  00000+0  17213-2 0  9992", "line2": "2 66822  70.0004 164.7120 0003793 275.5917  84.4837 15.52647761  4840"}}, "geometry": {"type": "Point", "coordinates": [12.174290509751494, -52.61007635901378]}}, {"type": "Feature", "properties": {"norad_id": 66823, "name": "STARLINK-35957", "group": "last-30-days", "lat": -53.89965242303029, "lon": 13.675409628993659, "alt_km": 414.4959054283763, "timestamp": "2025-12-25T09:48:51.005700+00:00", "meta": {"OBJECT_NAME": "STARLINK-35957", "OBJECT_ID": "2025-280C", "EPOCH": "2025-12-25T01:03:18.817920", "MEAN_MOTION": 15.52521961, "ECCENTRICITY": 0.0002614, "INCLINATION": 70.0006, "RA_OF_ASC_NODE": 164.7101, "ARG_OF_PERICENTER": 286.5043, "MEAN_ANOMALY": 73.5857, "EPHEMERIS_TYPE": 0, "CLASSIFICATION_TYPE": "U", "NORAD_CAT_ID": 66823, "ELEMENT_SET_NO": 999, "REV_AT_EPOCH": 484, "BSTAR": 0.00047516, "MEAN_MOTION_DOT": 0.00029173, "MEAN_MOTION_DDOT": 0}, "tle": {"line1": "1 66823U 25280C   25359.04396780  .00029173  00000+0  47516-3 0  9990", "line2": "2 66823  70.0006 164.7101 0002614 286.5043  73.5857 15.52521961  4849"}}, "geometry": {"type": "Point", "coordinates": [13.675409628993659, -53.89965242303029]}}, {"type": "Feature", "properties": {"norad_id": 66824, "name": "STARLINK-35896", "group": "last-30-days", "lat": -55.48314725888635, "lon": 15.687951869804035, "alt_km": 413.7397740198603, "timestamp": "2025-12-25T09:48:51.005712+00:00", "meta": {"OBJECT_NAME": "STARLINK-35896", "OBJECT_ID": "2025-280D", "EPOCH": "2025-12-25T01:02:48.901056", "MEAN_MOTION": 15.52545648, "ECCENTRICITY": 0.0003302, "INCLINATION": 70.0006, "RA_OF_ASC_NODE": 164.7091, "ARG_OF_PERICENTER": 274.3307, "MEAN_ANOMALY": 85.7503, "EPHEMERIS_TYPE": 0, "CLASSIFICATION_TYPE": "U", "NORAD_CAT_ID": 66824, "ELEMENT_SET_NO": 999, "REV_AT_EPOCH": 484, "BSTAR": 0.00083943, "MEAN_MOTION_DOT": 0.00051862, "MEAN_MOTION_DDOT": 0}, "tle": {"line1": "1 66824U 25280D   25359.04362154  .00051862  00000+0  83943-3 0  9993", "line2": "2 66824  70.0006 164.7091 0003302 274.3307  85.7503 15.52545648  4842"}}, "geometry": {"type": "Point", "coordinates": [15.687951869804035, -55.48314725888635]}}, {"type": "Feature", "properties": {"norad_id": 66825, "name": "STARLINK-35476", "group": "last-30-days", "lat": -56.96293415579826, "lon": 17.766033938169965, "alt_km": 413.64260668113457, "timestamp": "2025-12-25T09:48:51.005723+00:00", "meta": {"OBJECT_NAME": "STARLINK-35476", "OBJECT_ID": "2025-280E", "EPOCH": "2025-12-25T01:02:19.353120", "MEAN_MOTION": 15.52530898, "ECCENTRICITY": 0.0003618, "INCLINATION": 70.0006, "RA_OF_ASC_NODE": 164.7075, "ARG_OF_PERICENTER": 275.7607, "MEAN_ANOMALY": 84.3167, "EPHEMERIS_TYPE": 0, "CLASSIFICATION_TYPE": "U", "NORAD_CAT_ID": 66825, "ELEMENT_SET_NO": 999, "REV_AT_EPOCH": 484, "BSTAR": 0.00068699, "MEAN_MOTION_DOT": 0.00042342, "MEAN_MOTION_DDOT": 0}, "tle": {"line1": "1 66825U 25280E   25359.04327955  .00042342  00000+0  68699-3 0  9998", "line2": "2 66825  70.0006 164.7075 0003618 275.7607  84.3167 15.52530898  4845"}}, "geometry": {"type": "Point", "coordinates": [17.766033938169965, -56.96293415579826]}}, {"type": "Feature", "properties": {"norad_id": 66826, "name": "STARLINK-35898", "group": "last-30-days", "lat": -58.45649958103119, "lon": 20.098051789099518, "alt_km": 413.7980699289983, "timestamp": "2025-12-25T09:48:51.005732+00:00", "meta": {"OBJECT_NAME": "STARLINK-35898", "OBJECT_ID": "2025-280F", "EPOCH": "2025-12-25T01:01:49.617696", "MEAN_MOTION": 15.52542852, "ECCENTRICITY": 0.0003159, "INCLINATION": 70.0007, "RA_OF_ASC_NODE": 164.7059, "ARG_OF_PERICENTER": 272.0742, "MEAN_ANOMALY": 88.0083, "EPHEMERIS_TYPE": 0, "CLASSIFICATION_TYPE": "U", "NORAD_CAT_ID": 66826, "ELEMENT_SET_NO": 999, "REV_AT_EPOCH": 484, "BSTAR": 0.00067683, "MEAN_MOTION_DOT": 0.00041725, "MEAN_MOTION_DDOT": 0}, "tle": {"line1": "1 66826U 25280F   25359.04293539  .00041725  00000+0  67683-3 0  9995", "line2": "2 66826  70.0007 164.7059 0003159 272.0742  88.0083 15.52542852  4840"}}, "geometry": {"type": "Point", "coordinates": [20.098051789099518, -58.45649958103119]}}, {"type": "Feature", "properties": {"norad_id": 66827, "name": "STARLINK-35959", "group": "last-30-days", "lat": -59.897949343939274, "lon": 22.623826695319114, "alt_km": 413.7014285044679, "timestamp": "2025-12-25T09:48:51.005743+00:00", "meta": {"OBJECT_NAME": "STARLINK-35959", "OBJECT_ID": "2025-280G", "EPOCH": "2025-12-25T01:01:20.072352", "MEAN_MOTION": 15.52552809, "ECCENTRICITY": 0.0003245, "INCLINATION": 70.0006, "RA_OF_ASC_NODE": 164.705, "ARG_OF_PERICENTER": 277.146, "MEAN_ANOMALY": 82.9357, "EPHEMERIS_TYPE": 0, "CLASSIFICATION_TYPE": "U", "NORAD_CAT_ID": 66827, "ELEMENT_SET_NO": 999, "REV_AT_EPOCH": 484, "BSTAR": 0.0013717, "MEAN_MOTION_DOT": 0.00085236, "MEAN_MOTION_DDOT": 0}, "tle": {"line1": "1 66827U 25280G   25359.04259343  .00085236  00000+0  13717-2 0  9994", "line2": "2 66827  70.0006 164.7050 0003245 277.1460  82.9357 15.52552809  4840"}}, "geometry": {"type": "Point", "coordinates": [22.623826695319114, -59.897949343939274]}}, {"type": "Feature", "properties": {"norad_id": 66828, "name": "STARLINK-35982", "group": "last-30-days", "lat": -62.570067964527695, "lon": 28.265251947425856, "alt_km": 413.6798799385988, "timestamp": "2025-12-25T09:48:51.005752+00:00", "meta": {"OBJECT_NAME": "STARLINK-35982", "OBJECT_ID": "2025-280H", "EPOCH": "2025-12-25T01:00:20.724192", "MEAN_MOTION": 15.52545067, "ECCENTRICITY": 0.0003311, "INCLINATION": 70.0006, "RA_OF_ASC_NODE": 164.7023, "ARG_OF_PERICENTER": 274.5351, "MEAN_ANOMALY": 85.5457, "EPHEMERIS_TYPE": 0, "CLASSIFICATION_TYPE": "U", "NORAD_CAT_ID": 66828, "ELEMENT_SET_NO": 999, "REV_AT_EPOCH": 484, "BSTAR": 0.00089362, "MEAN_MOTION_DOT": 0.00055244, "MEAN_MOTION_DDOT": 0}, "tle": {"line1": "1 66828U 25280H   25359.04190653  .00055244  00000+0  89362-3 0  9999", "line2": "2 66828  70.0006 164.7023 0003311 274.5351  85.5457 15.52545067  4843"}}, "geometry": {"type": "Point", "coordinates": [28.265251947425856, -62.570067964527695]}}]}